 Automated mail xmit by MAIL_REQUEST, PID=   3657 Sat Apr 12 04:59:54 2014
++++++++++++++++++++++++++++++++ (part 1 of 1)  
++++++++++++++++++++++++++++++++ +++++++++++++++++++++++++++++++

*******************************************************************************
 Revised: Dec 30, 2013            Dione  / (Saturn)                         604
                        http://ssd.jpl.nasa.gov/?sat_phys_par
                          http://ssd.jpl.nasa.gov/?sat_elem

 SATELLITE PHYSICAL PROPERTIES:
  Mean Radius (km)        = 562.5   +- 5     Density (g/cm^3) =  1.469 +- 0.012
  Mass (10^22 g)          = 109.572          Geometric Albedo =  0.6
  GM (km^3/s^2)           =  73.113 +- 0.02 V(1,0)            = +0.8

 SATELLITE ORBITAL DATA (mean values referred to local Laplace plane):
  Semi-major axis, a (km) = 377.42(10^3)    Orbital period    = 2.736915 d
  Eccentricity, e         = 0.0022          Rotational period = Synchronous
  Inclination, i  (deg)   = 0.028
*******************************************************************************
 
 
*******************************************************************************
Ephemeris / MAIL_REQUEST Sat Apr 12 04:59:53 2014 Pasadena, USA  / Horizons    
*******************************************************************************
Target body name: Dione (604)                     {source: SAT360}
Center body name: Sun (10)                        {source: DE-0431LE-0431}
Center-site name: BODY CENTER
*******************************************************************************
Start time      : A.D. 2013-Jan-01 10:00:00.0000 CT 
Stop  time      : A.D. 2014-Jan-01 10:00:00.0000 CT 
Step-size       : 2 steps
*******************************************************************************
Center geodetic : 0.00000000,0.00000000,0.0000000 {E-lon(deg),Lat(deg),Alt(km)} Center cylindric: 0.00000000,0.00000000,0.0000000 {E-lon(deg),Dxy(km),Dz(km)}
Center radii    : 696000.0 x 696000.0 x 696000.0 k{Equator, meridian, pole}    
Output units    : AU-D                                                         
Output format   : 03
Reference frame : ICRF/J2000.0                                                 
Output type     : GEOMETRIC cartesian states
Coordinate systm: Ecliptic and Mean Equinox of Reference Epoch                 
*******************************************************************************
JDCT ,   , X, Y, Z, VX, VY, VZ, LT, RG, RR,
*******************************************************************************
$$SOE
2456293.916666667, A.D. 2013-Jan-01 10:00:00.0000, -8.077251190589603E+00, -5.516870781231971E+00,  4.175020173728238E-01,  3.240767373303955E-03,  4.949842859437690E-04, -2.746986094665050E-03,  5.654470126985772E-02,  9.790411531044168E+00, -3.069751318384864E-03, 2456476.416666667, A.D. 2013-Jul-02 22:00:00.0000, -7.521838895997693E+00, -6.331349118417189E+00,  4.105916237451415E-01,  8.327263655911315E-03, -6.952752878219455E-03,  8.524474918325188E-04,  5.683316271992110E-02,  9.840357082856070E+00, -1.856235693943316E-03, 2456658.916666667, A.D. 2014-Jan-01 10:00:00.0000, -6.885152400610481E+00, -7.075252849964955E+00,  3.962780155287648E-01, -9.530793310746643E-04, -6.774096294090456E-03,  1.870406155797719E-03,  5.706421462447329E-02,  9.880362479998439E+00,  5.590052136901209E-03, $$EOE
*******************************************************************************
Coordinate system description:

  Ecliptic and Mean Equinox of Reference Epoch

    Reference epoch: J2000.0
    xy-plane: plane of the Earth's orbit at the reference epoch
    x-axis  : out along ascending node of instantaneous plane of the Earth's
              orbit and the Earth's mean equator at the reference epoch
    z-axis  : perpendicular to the xy-plane in the directional (+ or -) sense
              of Earth's north pole at the reference epoch.

Symbol meaning [1 au=149597870.700 km, 1 day=86400.0 s]:

    JDCT     Epoch Julian Date, Coordinate Time
      X      x-component of position vector (AU)                               
      Y      y-component of position vector (AU)                               
      Z      z-component of position vector (AU)                               
      VX     x-component of velocity vector (AU/day)                           
      VY     y-component of velocity vector (AU/day)                           
      VZ     z-component of velocity vector (AU/day)                           
      LT     One-way down-leg Newtonian light-time (day)                       
      RG     Range; distance from coordinate center (AU)                       
      RR     Range-rate; radial velocity wrt coord. center (AU/day)            

Geometric states/elements have no aberration corrections applied.

 Computations by ...
     Solar System Dynamics Group, Horizons On-Line Ephemeris System
     4800 Oak Grove Drive, Jet Propulsion Laboratory
     Pasadena, CA  91109   USA
     Information: http://ssd.jpl.nasa.gov/
     Connect    : telnet://ssd.jpl.nasa.gov:6775  (via browser)
                  telnet ssd.jpl.nasa.gov 6775    (via command-line)
     Author     : Jon.Giorgini@jpl.nasa.gov
*******************************************************************************
